QIANFAN-73              
1 63159U 25046A   25258.83866218  .00000106  00000+0  14579-3 0  9990
2 63159  88.9842 329.1051 0015243  26.7486 333.4448 13.50972595 35546
QIANFAN-74              
1 63160U 25046B   25258.82208431  .00000149  00000+0  21153-3 0  9991
2 63160  88.9842 328.9951 0002212 108.1723 251.9669 13.50978785 35608
QIANFAN-75              
1 63161U 25046C   25258.80987057  .00000143  00000+0  20301-3 0  9996
2 63161  88.9843 329.2287 0016429  29.2833 330.9235 13.50975446 35479
QIANFAN-76              
1 63162U 25046D   25258.80570626  .00000101  00000+0  13705-3 0  9991
2 63162  88.9843 329.2101 0014042  31.3467 328.8519 13.50970765 35482
QIANFAN-77              
1 63163U 25046E   25258.81330976  .00000309  00000+0  21564-3 0  9997
2 63163  88.9838 327.9384 0014182   4.6830 355.4477 13.96044056 36189
QIANFAN-78              
1 63164U 25046F   25258.84688219  .00000143  00000+0  20292-3 0  9990
2 63164  88.9841 329.0709 0015485  32.6375 327.5730 13.50974777 35565
QIANFAN-79              
1 63165U 25046G   25258.87552737  .00000125  00000+0  17530-3 0  9990
2 63165  88.9845 329.1720 0015107  31.1194 329.0849 13.50977082 35513
QIANFAN-80              
1 63166U 25046H   25258.81803945  .00000149  00000+0  21242-3 0  9996
2 63166  88.9842 328.8872 0014283  36.0343 324.1768 13.50977234 35660
