<?xml version="1.0" encoding="UTF-8"?>
<ndm xmlns:xsi="http://www.w3.org/2001/XMLSchema-instance" xsi:noNamespaceSchemaLocation="https://sanaregistry.org/r/ndmxml_unqualified/ndmxml-2.0.0-master-2.0.xsd">
<omm id="CCSDS_OMM_VERS" version="2.0">
<header><CREATION_DATE/><ORIGINATOR/></header><body><segment><metadata><OBJECT_NAME>QIANFAN-73</OBJECT_NAME><OBJECT_ID>2025-046A</OBJECT_ID><CENTER_NAME>EARTH</CENTER_NAME><REF_FRAME>TEME</REF_FRAME><TIME_SYSTEM>UTC</TIME_SYSTEM><MEAN_ELEMENT_THEORY>SGP4</MEAN_ELEMENT_THEORY></metadata><data><meanElements><EPOCH>2025-09-15T20:07:40.412352</EPOCH><MEAN_MOTION>13.50972595</MEAN_MOTION><ECCENTRICITY>.00152435</ECCENTRICITY><INCLINATION>88.9842</INCLINATION><RA_OF_ASC_NODE>329.1051</RA_OF_ASC_NODE><ARG_OF_PERICENTER>26.7486</ARG_OF_PERICENTER><MEAN_ANOMALY>333.4448</MEAN_ANOMALY></meanElements><tleParameters><EPHEMERIS_TYPE>0</EPHEMERIS_TYPE><CLASSIFICATION_TYPE>U</CLASSIFICATION_TYPE><NORAD_CAT_ID>63159</NORAD_CAT_ID><ELEMENT_SET_NO>999</ELEMENT_SET_NO><REV_AT_EPOCH>3554</REV_AT_EPOCH><BSTAR>.14579286E-3</BSTAR><MEAN_MOTION_DOT>.106E-5</MEAN_MOTION_DOT><MEAN_MOTION_DDOT>0</MEAN_MOTION_DDOT></tleParameters></data></segment></body></omm>
<omm id="CCSDS_OMM_VERS" version="2.0">
<header><CREATION_DATE/><ORIGINATOR/></header><body><segment><metadata><OBJECT_NAME>QIANFAN-74</OBJECT_NAME><OBJECT_ID>2025-046B</OBJECT_ID><CENTER_NAME>EARTH</CENTER_NAME><REF_FRAME>TEME</REF_FRAME><TIME_SYSTEM>UTC</TIME_SYSTEM><MEAN_ELEMENT_THEORY>SGP4</MEAN_ELEMENT_THEORY></metadata><data><meanElements><EPOCH>2025-09-15T19:43:48.084384</EPOCH><MEAN_MOTION>13.50978785</MEAN_MOTION><ECCENTRICITY>.00022128</ECCENTRICITY><INCLINATION>88.9842</INCLINATION><RA_OF_ASC_NODE>328.9951</RA_OF_ASC_NODE><ARG_OF_PERICENTER>108.1723</ARG_OF_PERICENTER><MEAN_ANOMALY>251.9669</MEAN_ANOMALY></meanElements><tleParameters><EPHEMERIS_TYPE>0</EPHEMERIS_TYPE><CLASSIFICATION_TYPE>U</CLASSIFICATION_TYPE><NORAD_CAT_ID>63160</NORAD_CAT_ID><ELEMENT_SET_NO>999</ELEMENT_SET_NO><REV_AT_EPOCH>3560</REV_AT_EPOCH><BSTAR>.21152883E-3</BSTAR><MEAN_MOTION_DOT>.149E-5</MEAN_MOTION_DOT><MEAN_MOTION_DDOT>0</MEAN_MOTION_DDOT></tleParameters></data></segment></body></omm>
<omm id="CCSDS_OMM_VERS" version="2.0">
<header><CREATION_DATE/><ORIGINATOR/></header><body><segment><metadata><OBJECT_NAME>QIANFAN-75</OBJECT_NAME><OBJECT_ID>2025-046C</OBJECT_ID><CENTER_NAME>EARTH</CENTER_NAME><REF_FRAME>TEME</REF_FRAME><TIME_SYSTEM>UTC</TIME_SYSTEM><MEAN_ELEMENT_THEORY>SGP4</MEAN_ELEMENT_THEORY></metadata><data><meanElements><EPOCH>2025-09-15T19:26:12.817248</EPOCH><MEAN_MOTION>13.50975446</MEAN_MOTION><ECCENTRICITY>.00164295</ECCENTRICITY><INCLINATION>88.9843</INCLINATION><RA_OF_ASC_NODE>329.2287</RA_OF_ASC_NODE><ARG_OF_PERICENTER>29.2833</ARG_OF_PERICENTER><MEAN_ANOMALY>330.9235</MEAN_ANOMALY></meanElements><tleParameters><EPHEMERIS_TYPE>0</EPHEMERIS_TYPE><CLASSIFICATION_TYPE>U</CLASSIFICATION_TYPE><NORAD_CAT_ID>63161</NORAD_CAT_ID><ELEMENT_SET_NO>999</ELEMENT_SET_NO><REV_AT_EPOCH>3547</REV_AT_EPOCH><BSTAR>.20300872E-3</BSTAR><MEAN_MOTION_DOT>.143E-5</MEAN_MOTION_DOT><MEAN_MOTION_DDOT>0</MEAN_MOTION_DDOT></tleParameters></data></segment></body></omm>
<omm id="CCSDS_OMM_VERS" version="2.0">
<header><CREATION_DATE/><ORIGINATOR/></header><body><segment><metadata><OBJECT_NAME>QIANFAN-76</OBJECT_NAME><OBJECT_ID>2025-046D</OBJECT_ID><CENTER_NAME>EARTH</CENTER_NAME><REF_FRAME>TEME</REF_FRAME><TIME_SYSTEM>UTC</TIME_SYSTEM><MEAN_ELEMENT_THEORY>SGP4</MEAN_ELEMENT_THEORY></metadata><data><meanElements><EPOCH>2025-09-15T19:20:13.020864</EPOCH><MEAN_MOTION>13.50970765</MEAN_MOTION><ECCENTRICITY>.00140421</ECCENTRICITY><INCLINATION>88.9843</INCLINATION><RA_OF_ASC_NODE>329.2101</RA_OF_ASC_NODE><ARG_OF_PERICENTER>31.3467</ARG_OF_PERICENTER><MEAN_ANOMALY>328.8519</MEAN_ANOMALY></meanElements><tleParameters><EPHEMERIS_TYPE>0</EPHEMERIS_TYPE><CLASSIFICATION_TYPE>U</CLASSIFICATION_TYPE><NORAD_CAT_ID>63162</NORAD_CAT_ID><ELEMENT_SET_NO>999</ELEMENT_SET_NO><REV_AT_EPOCH>3548</REV_AT_EPOCH><BSTAR>.13705293E-3</BSTAR><MEAN_MOTION_DOT>.101E-5</MEAN_MOTION_DOT><MEAN_MOTION_DDOT>0</MEAN_MOTION_DDOT></tleParameters></data></segment></body></omm>
<omm id="CCSDS_OMM_VERS" version="2.0">
<header><CREATION_DATE/><ORIGINATOR/></header><body><segment><metadata><OBJECT_NAME>QIANFAN-77</OBJECT_NAME><OBJECT_ID>2025-046E</OBJECT_ID><CENTER_NAME>EARTH</CENTER_NAME><REF_FRAME>TEME</REF_FRAME><TIME_SYSTEM>UTC</TIME_SYSTEM><MEAN_ELEMENT_THEORY>SGP4</MEAN_ELEMENT_THEORY></metadata><data><meanElements><EPOCH>2025-09-15T19:31:09.963264</EPOCH><MEAN_MOTION>13.96044056</MEAN_MOTION><ECCENTRICITY>.0014182</ECCENTRICITY><INCLINATION>88.9838</INCLINATION><RA_OF_ASC_NODE>327.9384</RA_OF_ASC_NODE><ARG_OF_PERICENTER>4.6830</ARG_OF_PERICENTER><MEAN_ANOMALY>355.4477</MEAN_ANOMALY></meanElements><tleParameters><EPHEMERIS_TYPE>0</EPHEMERIS_TYPE><CLASSIFICATION_TYPE>U</CLASSIFICATION_TYPE><NORAD_CAT_ID>63163</NORAD_CAT_ID><ELEMENT_SET_NO>999</ELEMENT_SET_NO><REV_AT_EPOCH>3618</REV_AT_EPOCH><BSTAR>.21564004E-3</BSTAR><MEAN_MOTION_DOT>.309E-5</MEAN_MOTION_DOT><MEAN_MOTION_DDOT>0</MEAN_MOTION_DDOT></tleParameters></data></segment></body></omm>
<omm id="CCSDS_OMM_VERS" version="2.0">
<header><CREATION_DATE/><ORIGINATOR/></header><body><segment><metadata><OBJECT_NAME>QIANFAN-78</OBJECT_NAME><OBJECT_ID>2025-046F</OBJECT_ID><CENTER_NAME>EARTH</CENTER_NAME><REF_FRAME>TEME</REF_FRAME><TIME_SYSTEM>UTC</TIME_SYSTEM><MEAN_ELEMENT_THEORY>SGP4</MEAN_ELEMENT_THEORY></metadata><data><meanElements><EPOCH>2025-09-15T20:19:30.621216</EPOCH><MEAN_MOTION>13.50974777</MEAN_MOTION><ECCENTRICITY>.00154856</ECCENTRICITY><INCLINATION>88.9841</INCLINATION><RA_OF_ASC_NODE>329.0709</RA_OF_ASC_NODE><ARG_OF_PERICENTER>32.6375</ARG_OF_PERICENTER><MEAN_ANOMALY>327.5730</MEAN_ANOMALY></meanElements><tleParameters><EPHEMERIS_TYPE>0</EPHEMERIS_TYPE><CLASSIFICATION_TYPE>U</CLASSIFICATION_TYPE><NORAD_CAT_ID>63164</NORAD_CAT_ID><ELEMENT_SET_NO>999</ELEMENT_SET_NO><REV_AT_EPOCH>3556</REV_AT_EPOCH><BSTAR>.20291829E-3</BSTAR><MEAN_MOTION_DOT>.143E-5</MEAN_MOTION_DOT><MEAN_MOTION_DDOT>0</MEAN_MOTION_DDOT></tleParameters></data></segment></body></omm>
<omm id="CCSDS_OMM_VERS" version="2.0">
<header><CREATION_DATE/><ORIGINATOR/></header><body><segment><metadata><OBJECT_NAME>QIANFAN-79</OBJECT_NAME><OBJECT_ID>2025-046G</OBJECT_ID><CENTER_NAME>EARTH</CENTER_NAME><REF_FRAME>TEME</REF_FRAME><TIME_SYSTEM>UTC</TIME_SYSTEM><MEAN_ELEMENT_THEORY>SGP4</MEAN_ELEMENT_THEORY></metadata><data><meanElements><EPOCH>2025-09-15T21:00:45.564768</EPOCH><MEAN_MOTION>13.50977082</MEAN_MOTION><ECCENTRICITY>.00151075</ECCENTRICITY><INCLINATION>88.9845</INCLINATION><RA_OF_ASC_NODE>329.1720</RA_OF_ASC_NODE><ARG_OF_PERICENTER>31.1194</ARG_OF_PERICENTER><MEAN_ANOMALY>329.0849</MEAN_ANOMALY></meanElements><tleParameters><EPHEMERIS_TYPE>0</EPHEMERIS_TYPE><CLASSIFICATION_TYPE>U</CLASSIFICATION_TYPE><NORAD_CAT_ID>63165</NORAD_CAT_ID><ELEMENT_SET_NO>999</ELEMENT_SET_NO><REV_AT_EPOCH>3551</REV_AT_EPOCH><BSTAR>.17529969E-3</BSTAR><MEAN_MOTION_DOT>.125E-5</MEAN_MOTION_DOT><MEAN_MOTION_DDOT>0</MEAN_MOTION_DDOT></tleParameters></data></segment></body></omm>
<omm id="CCSDS_OMM_VERS" version="2.0">
<header><CREATION_DATE/><ORIGINATOR/></header><body><segment><metadata><OBJECT_NAME>QIANFAN-80</OBJECT_NAME><OBJECT_ID>2025-046H</OBJECT_ID><CENTER_NAME>EARTH</CENTER_NAME><REF_FRAME>TEME</REF_FRAME><TIME_SYSTEM>UTC</TIME_SYSTEM><MEAN_ELEMENT_THEORY>SGP4</MEAN_ELEMENT_THEORY></metadata><data><meanElements><EPOCH>2025-09-15T19:37:58.608480</EPOCH><MEAN_MOTION>13.50977234</MEAN_MOTION><ECCENTRICITY>.00142836</ECCENTRICITY><INCLINATION>88.9842</INCLINATION><RA_OF_ASC_NODE>328.8872</RA_OF_ASC_NODE><ARG_OF_PERICENTER>36.0343</ARG_OF_PERICENTER><MEAN_ANOMALY>324.1768</MEAN_ANOMALY></meanElements><tleParameters><EPHEMERIS_TYPE>0</EPHEMERIS_TYPE><CLASSIFICATION_TYPE>U</CLASSIFICATION_TYPE><NORAD_CAT_ID>63166</NORAD_CAT_ID><ELEMENT_SET_NO>999</ELEMENT_SET_NO><REV_AT_EPOCH>3566</REV_AT_EPOCH><BSTAR>.2124166E-3</BSTAR><MEAN_MOTION_DOT>.149E-5</MEAN_MOTION_DOT><MEAN_MOTION_DDOT>0</MEAN_MOTION_DDOT></tleParameters></data></segment></body></omm>

</ndm>
